NORAD_CAT_ID,OBJECT_NAME,OBJECT_TYPE,EPOCH,MEAN_MOTION,ECCENTRICITY,INCLINATION,RA_OF_ASC_NODE,ARG_OF_PERICENTER,MEAN_ANOMALY,BSTAR,MEAN_MOTION_DOT,MEAN_MOTION_DDOT,TLE_LINE0,TLE_LINE1,TLE_LINE2,SEMIMAJOR_AXIS,PERIOD,APOGEE,PERIGEE,DECAYED
53154.0,STARLINK-4077,PAYLOAD,2023-07-15 08:59:19,15.08841798,0.0001117,53.2164,191.0571,87.2188,272.8932,0.0001276,1.744e-05,0.0,0 STARLINK-4077,1 53154U 22083Y   23196.37453315  .00001744  00000-0  12760-3 0  9990,2 53154  53.2164 191.0571 0001117  87.2188 272.8932 15.08841798 55801,6917.875,95.437,540.513,538.967,0.0
53154.0,STARLINK-4077,PAYLOAD,2023-07-15 16:56:15,15.08838062,0.0001132,53.2164,189.5703,85.3515,274.7606,9.3341e-05,1.198e-05,0.0,0 STARLINK-4077,1 53154U 22083Y   23196.70573708  .00001198  00000-0  93341-4 0  9994,2 53154  53.2164 189.5703 0001132  85.3515 274.7606 15.08838062 55854,6917.886,95.438,540.534,538.968,0.0
53154.0,STARLINK-4077,PAYLOAD,2023-07-16 16:47:03,15.08835502,0.0001132,53.2164,185.109,89.7316,270.3806,3.766e-05,3.12e-06,0.0,0 STARLINK-4077,1 53154U 22083Y   23197.69934189  .00000312  00000-0  37660-4 0  9996,2 53154  53.2164 185.1090 0001132  89.7316 270.3806 15.08835502 56000,6917.894,95.438,540.542,538.976,0.0
53154.0,STARLINK-4077,PAYLOAD,2023-07-17 22:59:22,15.08842964,0.0001157,53.2164,179.4586,90.7522,269.3603,0.00010019,1.307e-05,0.0,0 STARLINK-4077,1 53154U 22083Y   23198.95789633  .00001307  00000-0  10019-3 0  9991,2 53154  53.2164 179.4586 0001157  90.7522 269.3603 15.08842964 56197,6917.871,95.437,540.537,538.936,0.0
53154.0,STARLINK-4077,PAYLOAD,2023-07-19 02:00:56,15.08835591,0.0001139,53.2165,174.4043,86.5476,273.5647,5.6088e-05,6.05e-06,0.0,0 STARLINK-4077,1 53154U 22083Y   23200.08398244  .00000605  00000-0  56088-4 0  9990,2 53154  53.2165 174.4043 0001139  86.5476 273.5647 15.08835591 56364,6917.894,95.438,540.547,538.971,0.0
53154.0,STARLINK-4077,PAYLOAD,2023-07-20 06:37:52,15.08838562,0.0001131,53.2161,169.0518,97.4999,262.6122,-9.2255e-06,-4.35e-06,0.0,0 STARLINK-4077,1 53154U 22083Y   23201.27630445 -.00000435  00000-0 -92255-5 0  9994,2 53154  53.2161 169.0518 0001131  97.4999 262.6122 15.08838562 56548,6917.885,95.438,540.532,538.967,0.0
53154.0,STARLINK-4077,PAYLOAD,2023-07-21 08:04:03,15.08834786,0.0001132,53.2163,164.294,97.6024,262.5097,6.7207e-05,7.82e-06,0.0,0 STARLINK-4077,1 53154U 22083Y   23202.33614779  .00000782  00000-0  67207-4 0  9995,2 53154  53.2163 164.2940 0001132  97.6024 262.5097 15.08834786 56700,6917.896,95.438,540.544,538.978,0.0
53154.0,STARLINK-4077,PAYLOAD,2023-07-24 06:01:01,15.08842884,0.0001355,53.2172,151.2114,78.3395,281.7749,3.5589e-05,2.79e-06,0.0,0 STARLINK-4077,1 53154U 22083Y   23205.25070792  .00000279  00000-0  35589-4 0  9999,2 53154  53.2172 151.2114 0001355  78.3395 281.7749 15.08842884 56517,6917.872,95.437,540.674,538.799,0.0
53154.0,STARLINK-4077,PAYLOAD,2023-07-25 05:51:48,15.08845251,0.0001415,53.2161,146.7516,80.6126,279.5026,3.7686e-05,3.12e-06,0.0,0 STARLINK-4077,1 53154U 22083Y   23206.24430622  .00000312  00000-0  37686-4 0  9999,2 53154  53.2161 146.7516 0001415  80.6126 279.5026 15.08845251 56665,6917.864,95.437,540.708,538.75,0.0
53154.0,STARLINK-4077,PAYLOAD,2023-07-26 05:42:35,15.08838554,0.0001768,53.2157,142.2871,108.3875,251.7309,4.0188e-05,3.52e-06,0.0,0 STARLINK-4077,1 53154U 22083Y   23207.23791083  .00000352  00000-0  40188-4 0  9995,2 53154  53.2157 142.2871 0001768 108.3875 251.7309 15.08838554 56816,6917.885,95.438,540.973,538.527,0.0
53154.0,STARLINK-4077,PAYLOAD,2023-07-27 02:22:35,15.08845408,0.0001229,53.2163,138.4256,89.6168,270.4965,5.6798e-05,6.16e-06,0.0,0 STARLINK-4077,1 53154U 22083Y   23208.09902369  .00000616  00000-0  56798-4 0  9998,2 53154  53.2163 138.4256 0001229  89.6168 270.4965 15.08845408 57571,6917.864,95.437,540.579,538.879,0.0
53154.0,STARLINK-4077,PAYLOAD,2023-07-27 15:05:41,15.0883035,9.33e-05,53.2178,136.0471,80.2733,279.8364,1.2183e-05,-9.4e-07,0.0,0 STARLINK-4077,1 53154U 22083Y   23208.62895529 -.00000094  00000-0  12183-4 0  9997,2 53154  53.2178 136.0471 0000933  80.2733 279.8364 15.08830350 57651,6917.91,95.438,540.42,539.129,0.0
53154.0,STARLINK-4077,PAYLOAD,2023-07-27 19:51:51,15.08825141,8.05e-05,53.2168,135.1523,88.642,271.4665,-9.899e-05,-1.862e-05,0.0,0 STARLINK-4077,1 53154U 22083Y   23208.82768342 -.00001862  00000-0 -98990-4 0  9996,2 53154  53.2168 135.1523 0000805  88.6420 271.4665 15.08825141 57059,6917.926,95.438,540.348,539.234,0.0
53154.0,STARLINK-4077,PAYLOAD,2023-07-28 00:38:01,15.08824913,0.0001122,53.2169,134.2631,82.911,277.201,-5.5546e-05,-1.171e-05,0.0,0 STARLINK-4077,1 53154U 22083Y   23209.02640410 -.00001171  00000-0 -55546-4 0  9997,2 53154  53.2169 134.2631 0001122  82.9110 277.2010 15.08824913 57713,6917.927,95.439,540.568,539.015,0.0
53154.0,STARLINK-4077,PAYLOAD,2023-07-28 03:48:47,15.08830193,0.0001164,53.2168,133.6668,102.4713,257.641,-5.5564e-05,-1.172e-05,0.0,0 STARLINK-4077,1 53154U 22083Y   23209.15888130 -.00001172  00000-0 -55564-4 0  9995,2 53154  53.2168 133.6668 0001164 102.4713 257.6410 15.08830193 57104,6917.91,95.438,540.581,538.97,0.0
53154.0,STARLINK-4077,PAYLOAD,2023-07-28 18:07:15,15.08835208,0.0001136,53.217,130.9904,105.0302,255.0816,3.2352e-06,-2.36e-06,0.0,0 STARLINK-4077,1 53154U 22083Y   23209.75503820 -.00000236  00000-0  32352-5 0  9991,2 53154  53.2170 130.9904 0001136 105.0302 255.0816 15.08835208 57825,6917.895,95.438,540.546,538.974,0.0
53154.0,STARLINK-4077,PAYLOAD,2023-07-29 02:04:10,15.08847554,0.000108,53.2171,129.5038,101.8326,258.2787,7.7879e-06,-1.64e-06,0.0,0 STARLINK-4077,1 53154U 22083Y   23210.08623151 -.00000164  00000-0  77879-5 0  9992,2 53154  53.2171 129.5038 0001080 101.8326 258.2787 15.08847554 57870,6917.857,95.437,540.469,538.975,0.0
53154.0,STARLINK-4077,PAYLOAD,2023-07-29 11:36:29,15.08840153,8.08e-05,53.2174,127.7193,89.8302,270.2783,0.00014563,2.031e-05,0.0,0 STARLINK-4077,1 53154U 22083Y   23210.48367293  .00002031  00000-0  14563-3 0  9991,2 53154  53.2174 127.7193 0000808  89.8302 270.2783 15.08840153 57936,6917.88,95.438,540.304,539.186,0.0
53154.0,STARLINK-4077,PAYLOAD,2023-07-30 01:54:58,15.08833939,9.99e-05,53.2184,125.0432,96.662,263.4486,0.00019219,2.772e-05,0.0,0 STARLINK-4077,1 53154U 22083Y   23211.07983899  .00002772  00000-0  19219-3 0  9998,2 53154  53.2184 125.0432 0000999  96.6620 263.4486 15.08833939 58023,6917.899,95.438,540.455,539.073,0.0
53154.0,STARLINK-4077,PAYLOAD,2023-07-31 03:21:08,15.08845147,0.0001147,53.2168,120.2842,105.1801,254.9318,3.602e-05,2.86e-06,0.0,0 STARLINK-4077,1 53154U 22083Y   23212.13967686  .00000286  00000-0  36020-4 0  9990,2 53154  53.2168 120.2842 0001147 105.1801 254.9318 15.08845147 58180,6917.865,95.437,540.523,538.936,0.0
53154.0,STARLINK-4077,PAYLOAD,2023-07-31 11:18:04,15.08839063,0.0001104,53.2164,118.7966,113.072,247.0389,-2.3309e-05,-6.59e-06,0.0,0 STARLINK-4077,1 53154U 22083Y   23212.47088183 -.00000659  00000-0 -23309-4 0  9995,2 53154  53.2164 118.7966 0001104 113.0720 247.0389 15.08839063 58233,6917.883,95.438,540.512,538.985,0.0
53154.0,STARLINK-4077,PAYLOAD,2023-08-01 17:30:23,15.08841463,0.0001132,53.2166,113.1467,99.9834,260.1286,1.1337e-05,-1.07e-06,0.0,0 STARLINK-4077,1 53154U 22083Y   23213.72944201 -.00000107  00000-0  11337-4 0  9991,2 53154  53.2166 113.1467 0001132  99.9834 260.1286 15.08841463 58429,6917.876,95.437,540.524,538.958,0.0
53154.0,STARLINK-4077,PAYLOAD,2023-08-01 23:51:55,15.08847659,0.0001113,53.2163,111.9572,98.6329,261.4789,6.8975e-05,8.1e-06,0.0,0 STARLINK-4077,1 53154U 22083Y   23213.99439594  .00000810  00000-0  68975-4 0  9994,2 53154  53.2163 111.9572 0001113  98.6329 261.4789 15.08847659 58462,6917.857,95.437,540.492,538.952,0.0
53154.0,STARLINK-4077,PAYLOAD,2023-08-03 02:53:28,15.08850468,0.0001316,53.2173,106.9028,96.7462,263.368,0.00016092,2.275e-05,0.0,0 STARLINK-4077,1 53154U 22083Y   23215.12047079  .00002275  00000-0  16092-3 0  9993,2 53154  53.2173 106.9028 0001316  96.7462 263.3680 15.08850468 58637,6917.848,95.437,540.624,538.803,0.0
53154.0,STARLINK-4077,PAYLOAD,2023-08-03 23:33:30,15.08834274,0.0001247,53.2172,103.0375,93.2748,266.8387,-1.4292e-05,-5.15e-06,0.0,0 STARLINK-4077,1 53154U 22083Y   23215.98160872 -.00000515  00000-0 -14292-4 0  9992,2 53154  53.2172 103.0375 0001247  93.2748 266.8387 15.08834274 58764,6917.898,95.438,540.626,538.9,0.0
53154.0,STARLINK-4077,PAYLOAD,2023-08-04 21:48:54,15.08847623,0.0001151,53.2169,98.8751,96.7972,263.3151,2.6009e-05,1.26e-06,0.0,0 STARLINK-4077,1 53154U 22083Y   23216.90896132  .00000126  00000-0  26009-4 0  9995,2 53154  53.2169  98.8751 0001151  96.7972 263.3151 15.08847623 58909,6917.857,95.437,540.518,538.926,0.0
53154.0,STARLINK-4077,PAYLOAD,2023-08-05 10:32:02,15.08769401,0.0001669,53.2167,96.4968,120.9908,239.1248,0.0013798,0.00021697,0.0,0 STARLINK-4077,1 53154U 22083Y   23217.43891362  .00021697  00000-0  13798-2 0  9999,2 53154  53.2167  96.4968 0001669 120.9908 239.1248 15.08769401 58987,6918.096,95.442,541.116,538.807,0.0
53154.0,STARLINK-4077,PAYLOAD,2023-08-06 04:01:12,15.08863746,0.0001112,53.2158,93.2257,93.5912,266.5207,0.00041917,6.394e-05,0.0,0 STARLINK-4077,1 53154U 22083Y   23218.16750861  .00006394  00000-0  41917-3 0  9990,2 53154  53.2158  93.2257 0001112  93.5912 266.5207 15.08863746 59095,6917.808,95.436,540.442,538.904,0.0
53154.0,STARLINK-4077,PAYLOAD,2023-08-06 10:22:46,15.08831064,0.0001187,53.2155,92.0373,76.1764,283.936,-0.0002088,-3.608e-05,0.0,0 STARLINK-4077,1 53154U 22083Y   23218.43248305 -.00003608  00000-0 -20880-3 0  9998,2 53154  53.2155  92.0373 0001187  76.1764 283.9360 15.08831064 59138,6917.908,95.438,540.594,538.952,0.0
53154.0,STARLINK-4077,PAYLOAD,2023-08-07 00:41:15,15.08814746,0.0001091,53.2152,89.3601,77.5837,282.5277,-0.00019226,-3.344e-05,0.0,0 STARLINK-4077,1 53154U 22083Y   23219.02865029 -.00003344  00000-0 -19226-3 0  9991,2 53154  53.2152  89.3601 0001091  77.5837 282.5277 15.08814746 59228,6917.958,95.439,540.577,539.068,0.0
